start=new Date('2022-01-30T00:00:00.000Z').valueOf();
sats=[{"CENTER_NAME":"EARTH","RA_OF_ASC_NODE":"12.5300","RCS_SIZE":"LARGE","REV_AT_EPOCH":"3762","TIME_SYSTEM":"UTC","ARG_OF_PERICENTER":"67.3192","EPOCH":"2022-01-29T05:00:39.679776","CLASSIFICATION_TYPE":"U","APOAPSIS":"548.247","ECCENTRICITY":"0.00014810","MEAN_MOTION_DOT":"0.00000687","COUNTRY_CODE":"US","MEAN_MOTION_DDOT":"0.0000000000000","INCLINATION":"53.0579","PERIAPSIS":"546.195","MEAN_ELEMENT_THEORY":"SGP4","DECAY_DATE":null,"PERIOD":"95.592","MEAN_ANOMALY":"292.7954","NORAD_CAT_ID":"48639","EPHEMERIS_TYPE":"0","TLE_LINE2":"2 48639  53.0579  12.5300 0001481  67.3192 292.7954 15.06397542 37622","ELEMENT_SET_NO":"999","OBJECT_ID":"2021-044B","MEAN_MOTION":"15.06397542","OBJECT_TYPE":"PAYLOAD","TLE_LINE1":"1 48639U 21044B   22029.20879259  .00000687  00000-0  64986-4 0  9996","FILE":"3286885","BSTAR":"0.00006498600000","LAUNCH_DATE":"2021-05-26","GP_ID":"194886483","SITE":"AFETR","OBJECT_NAME":"STARLINK-2739","SEMIMAJOR_AXIS":"6925.356","REF_FRAME":"TEME"},{"GP_ID":"194915750","LAUNCH_DATE":"2021-05-26","SEMIMAJOR_AXIS":"6925.299","SITE":"AFETR","REF_FRAME":"TEME","OBJECT_NAME":"STARLINK-2736","OBJECT_ID":"2021-044C","ELEMENT_SET_NO":"999","BSTAR":"0.00019486000000","FILE":"3287083","TLE_LINE1":"1 48640U 21044C   22029.64002613  .00002623  00000-0  19486-3 0  9994","MEAN_MOTION":"15.06416093","OBJECT_TYPE":"PAYLOAD","TLE_LINE2":"2 48640  53.0581  10.6072 0001486  66.8576 293.2569 15.06416093 37684","EPHEMERIS_TYPE":"0","NORAD_CAT_ID":"48640","MEAN_MOTION_DDOT":"0.0000000000000","PERIOD":"95.591","MEAN_ANOMALY":"293.2569","DECAY_DATE":null,"MEAN_ELEMENT_THEORY":"SGP4","PERIAPSIS":"546.135","INCLINATION":"53.0581","MEAN_MOTION_DOT":"0.00002623","COUNTRY_CODE":"US","EPOCH":"2022-01-29T15:21:38.257632","APOAPSIS":"548.193","ECCENTRICITY":"0.00014860","CLASSIFICATION_TYPE":"U","ARG_OF_PERICENTER":"66.8576","TIME_SYSTEM":"UTC","REV_AT_EPOCH":"3768","RCS_SIZE":"LARGE","RA_OF_ASC_NODE":"10.6072","CENTER_NAME":"EARTH"},{"MEAN_MOTION_DDOT":"0.0000000000000","INCLINATION":"53.0571","PERIAPSIS":"546.132","MEAN_ELEMENT_THEORY":"SGP4","DECAY_DATE":null,"MEAN_ANOMALY":"294.7204","PERIOD":"95.592","NORAD_CAT_ID":"48641","EPHEMERIS_TYPE":"0","TLE_LINE2":"2 48641  53.0571  15.4286 0001547  65.3946 294.7204 15.06403475 37623","ELEMENT_SET_NO":"999","OBJECT_ID":"2021-044D","MEAN_MOTION":"15.06403475","OBJECT_TYPE":"PAYLOAD","TLE_LINE1":"1 48641U 21044D   22029.67922816  .00001969  00000-0  15102-3 0  9997","FILE":"3287083","BSTAR":"0.00015102000000","LAUNCH_DATE":"2021-05-26","GP_ID":"194914997","SITE":"AFETR","SEMIMAJOR_AXIS":"6925.338","REF_FRAME":"TEME","OBJECT_NAME":"STARLINK-2754","CENTER_NAME":"EARTH","RA_OF_ASC_NODE":"15.4286","RCS_SIZE":"LARGE","REV_AT_EPOCH":"3762","TIME_SYSTEM":"UTC","ARG_OF_PERICENTER":"65.3946","EPOCH":"2022-01-29T16:18:05.313024","CLASSIFICATION_TYPE":"U","APOAPSIS":"548.274","ECCENTRICITY":"0.00015470","MEAN_MOTION_DOT":"0.00001969","COUNTRY_CODE":"US"},{"MEAN_MOTION_DDOT":"0.0000000000000","MEAN_ELEMENT_THEORY":"SGP4","PERIAPSIS":"546.048","INCLINATION":"53.0574","MEAN_ANOMALY":"289.5695","PERIOD":"95.592","DECAY_DATE":null,"EPHEMERIS_TYPE":"0","TLE_LINE2":"2 48642  53.0574  15.3586 0001672  70.5474 289.5695 15.06402453 37623","NORAD_CAT_ID":"48642","ELEMENT_SET_NO":"999","OBJECT_ID":"2021-044E","TLE_LINE1":"1 48642U 21044E   22029.69303449  .00002462  00000-0  18410-3 0  9999","OBJECT_TYPE":"PAYLOAD","MEAN_MOTION":"15.06402453","BSTAR":"0.00018410000000","FILE":"3287083","GP_ID":"194915248","LAUNCH_DATE":"2021-05-26","SITE":"AFETR","SEMIMAJOR_AXIS":"6925.341","REF_FRAME":"TEME","OBJECT_NAME":"STARLINK-2646","CENTER_NAME":"EARTH","RA_OF_ASC_NODE":"15.3586","REV_AT_EPOCH":"3762","RCS_SIZE":"LARGE","ARG_OF_PERICENTER":"70.5474","TIME_SYSTEM":"UTC","EPOCH":"2022-01-29T16:37:58.179936","CLASSIFICATION_TYPE":"U","APOAPSIS":"548.364","ECCENTRICITY":"0.00016720","MEAN_MOTION_DOT":"0.00002462","COUNTRY_CODE":"US"},{"MEAN_MOTION_DDOT":"0.0000000000000","INCLINATION":"53.0566","PERIAPSIS":"546.240","MEAN_ELEMENT_THEORY":"SGP4","DECAY_DATE":null,"PERIOD":"95.592","MEAN_ANOMALY":"281.0445","NORAD_CAT_ID":"48643","TLE_LINE2":"2 48643  53.0566  14.2450 0001423  79.0704 281.0445 15.06396006 37667","EPHEMERIS_TYPE":"0","ELEMENT_SET_NO":"999","OBJECT_ID":"2021-044F","OBJECT_TYPE":"PAYLOAD","MEAN_MOTION":"15.06396006","TLE_LINE1":"1 48643U 21044F   22029.94093319  .00003104  00000-0  22719-3 0  9991","FILE":"3287083","BSTAR":"0.00022719000000","LAUNCH_DATE":"2021-05-26","GP_ID":"194915500","SITE":"AFETR","SEMIMAJOR_AXIS":"6925.361","REF_FRAME":"TEME","OBJECT_NAME":"STARLINK-2704","CENTER_NAME":"EARTH","RA_OF_ASC_NODE":"14.2450","RCS_SIZE":"LARGE","REV_AT_EPOCH":"3766","TIME_SYSTEM":"UTC","ARG_OF_PERICENTER":"79.0704","EPOCH":"2022-01-29T22:34:56.627616","CLASSIFICATION_TYPE":"U","APOAPSIS":"548.211","ECCENTRICITY":"0.00014230","MEAN_MOTION_DOT":"0.00003104","COUNTRY_CODE":"US"},{"SEMIMAJOR_AXIS":"6925.345","SITE":"AFETR","REF_FRAME":"TEME","OBJECT_NAME":"STARLINK-2695","LAUNCH_DATE":"2021-05-26","GP_ID":"194886726","FILE":"3286885","BSTAR":"0.00007547300000","OBJECT_TYPE":"PAYLOAD","MEAN_MOTION":"15.06401020","TLE_LINE1":"1 48644U 21044G   22029.27377652  .00000843  00000-0  75473-4 0  9996","OBJECT_ID":"2021-044G","ELEMENT_SET_NO":"999","NORAD_CAT_ID":"48644","EPHEMERIS_TYPE":"0","TLE_LINE2":"2 48644  53.0576  17.2534 0001478  56.7201 303.3930 15.06401020 37568","DECAY_DATE":null,"PERIOD":"95.592","MEAN_ANOMALY":"303.3930","INCLINATION":"53.0576","PERIAPSIS":"546.187","MEAN_ELEMENT_THEORY":"SGP4","MEAN_MOTION_DDOT":"0.0000000000000","COUNTRY_CODE":"US","MEAN_MOTION_DOT":"0.00000843","ECCENTRICITY":"0.00014780","APOAPSIS":"548.234","CLASSIFICATION_TYPE":"U","EPOCH":"2022-01-29T06:34:14.291328","TIME_SYSTEM":"UTC","ARG_OF_PERICENTER":"56.7201","RCS_SIZE":"LARGE","REV_AT_EPOCH":"3756","RA_OF_ASC_NODE":"17.2534","CENTER_NAME":"EARTH"},{"RCS_SIZE":"LARGE","REV_AT_EPOCH":"3766","TIME_SYSTEM":"UTC","ARG_OF_PERICENTER":"63.2747","CENTER_NAME":"EARTH","RA_OF_ASC_NODE":"14.2902","MEAN_MOTION_DOT":"0.00009687","COUNTRY_CODE":"US","EPOCH":"2022-01-29T22:24:20.894688","CLASSIFICATION_TYPE":"U","ECCENTRICITY":"0.00015190","APOAPSIS":"548.223","NORAD_CAT_ID":"48645","TLE_LINE2":"2 48645  53.0565  14.2902 0001519  63.2747 296.8398 15.06413756 37661","EPHEMERIS_TYPE":"0","MEAN_MOTION_DDOT":"0.0000000000000","INCLINATION":"53.0565","MEAN_ELEMENT_THEORY":"SGP4","PERIAPSIS":"546.119","DECAY_DATE":null,"PERIOD":"95.591","MEAN_ANOMALY":"296.8398","LAUNCH_DATE":"2021-05-26","GP_ID":"194914498","SITE":"AFETR","SEMIMAJOR_AXIS":"6925.306","OBJECT_NAME":"STARLINK-2733","REF_FRAME":"TEME","ELEMENT_SET_NO":"999","OBJECT_ID":"2021-044H","MEAN_MOTION":"15.06413756","OBJECT_TYPE":"PAYLOAD","TLE_LINE1":"1 48645U 21044H   22029.93357517  .00009687  00000-0  66809-3 0  9995","BSTAR":"0.00066809000000","FILE":"3287083"},{"EPOCH":"2022-01-29T11:10:15.070944","CLASSIFICATION_TYPE":"U","APOAPSIS":"548.264","ECCENTRICITY":"0.00014670","MEAN_MOTION_DOT":"-0.00000189","COUNTRY_CODE":"US","CENTER_NAME":"EARTH","RA_OF_ASC_NODE":"16.3738","RCS_SIZE":"LARGE","REV_AT_EPOCH":"3759","TIME_SYSTEM":"UTC","ARG_OF_PERICENTER":"86.1359","ELEMENT_SET_NO":"999","OBJECT_ID":"2021-044J","MEAN_MOTION":"15.06388726","OBJECT_TYPE":"PAYLOAD","TLE_LINE1":"1 48646U 21044J   22029.46545221 -.00000189  00000-0  61796-5 0  9996","FILE":"3286885","BSTAR":"0.00000617960000","LAUNCH_DATE":"2021-05-26","GP_ID":"194885232","SEMIMAJOR_AXIS":"6925.383","SITE":"AFETR","OBJECT_NAME":"STARLINK-2732","REF_FRAME":"TEME","MEAN_MOTION_DDOT":"0.0000000000000","INCLINATION":"53.0561","PERIAPSIS":"546.232","MEAN_ELEMENT_THEORY":"SGP4","DECAY_DATE":null,"PERIOD":"95.593","MEAN_ANOMALY":"273.9798","NORAD_CAT_ID":"48646","EPHEMERIS_TYPE":"0","TLE_LINE2":"2 48646  53.0561  16.3738 0001467  86.1359 273.9798 15.06388726 37593"},{"REF_FRAME":"TEME","SITE":"AFETR","SEMIMAJOR_AXIS":"6925.329","OBJECT_NAME":"STARLINK-2691","GP_ID":"194916000","LAUNCH_DATE":"2021-05-26","BSTAR":"0.00007627000000","FILE":"3287083","TLE_LINE1":"1 48647U 21044K   22029.85983781  .00000855  00000-0  76270-4 0  9998","MEAN_MOTION":"15.06406355","OBJECT_TYPE":"PAYLOAD","OBJECT_ID":"2021-044K","ELEMENT_SET_NO":"999","TLE_LINE2":"2 48647  53.0569  14.6200 0001541  86.0515 274.0650 15.06406355 37658","EPHEMERIS_TYPE":"0","NORAD_CAT_ID":"48647","PERIOD":"95.592","MEAN_ANOMALY":"274.0650","DECAY_DATE":null,"PERIAPSIS":"546.127","MEAN_ELEMENT_THEORY":"SGP4","INCLINATION":"53.0569","MEAN_MOTION_DDOT":"0.0000000000000","COUNTRY_CODE":"US","MEAN_MOTION_DOT":"0.00000855","APOAPSIS":"548.261","ECCENTRICITY":"0.00015410","CLASSIFICATION_TYPE":"U","EPOCH":"2022-01-29T20:38:09.986784","ARG_OF_PERICENTER":"86.0515","TIME_SYSTEM":"UTC","REV_AT_EPOCH":"3765","RCS_SIZE":"LARGE","RA_OF_ASC_NODE":"14.6200","CENTER_NAME":"EARTH"},{"TLE_LINE1":"1 48648U 21044L   22029.92523148  .00002683  00000-0  19891-3 0  9990","MEAN_MOTION":"15.06406448","OBJECT_TYPE":"PAYLOAD","FILE":"3287083","BSTAR":"0.00019891000000","ELEMENT_SET_NO":"999","OBJECT_ID":"2021-044L","SITE":"AFETR","OBJECT_NAME":"STARLINK-2521","SEMIMAJOR_AXIS":"6925.329","REF_FRAME":"TEME","GP_ID":"194915751","LAUNCH_DATE":"2021-05-26","PERIAPSIS":"545.718","MEAN_ELEMENT_THEORY":"SGP4","INCLINATION":"53.0569","MEAN_ANOMALY":"287.9438","PERIOD":"95.592","DECAY_DATE":null,"MEAN_MOTION_DDOT":"0.0000000000000","TLE_LINE2":"2 48648  53.0569  14.3228 0002131  72.1783 287.9438 15.06406448 37666","EPHEMERIS_TYPE":"0","NORAD_CAT_ID":"48648","CLASSIFICATION_TYPE":"U","ECCENTRICITY":"0.00021310","APOAPSIS":"548.670","EPOCH":"2022-01-29T22:12:19.999872","COUNTRY_CODE":"US","MEAN_MOTION_DOT":"0.00002683","CENTER_NAME":"EARTH","RA_OF_ASC_NODE":"14.3228","REV_AT_EPOCH":"3766","RCS_SIZE":"LARGE","ARG_OF_PERICENTER":"72.1783","TIME_SYSTEM":"UTC"}];
